0 STARLINK-4009
1 52624U 22052AC  23106.02362124 -.00071879  00000-0 -44957-2 0  9997
2 52624  53.2181 341.6389 0001236  92.5096 267.6037 15.09226744 51162
0 STARLINK-3988
1 52625U 22052AD  23105.87910094  .00002214  00000-0  15715-3 0  9991
2 52625  53.2175 342.3051 0001154  79.0606 281.0516 15.08837416 51149
0 STARLINK-3988
1 52625U 22052AD  23106.07782045  .00009371  00000-0  60598-3 0  9997
2 52625  53.2175 341.4127 0001110  77.0401 283.0715 15.08846562 51174
0 STARLINK-3988
1 52625U 22052AD  23106.07782045  .00009371  00000-0  60598-3 0  9997
2 52625  53.2175 341.4127 0001110  77.0401 283.0715 15.08846562 51556
0 STARLINK-3988
1 52625U 22052AD  23106.80646612  .00010760  00000-0  69320-3 0  9993
2 52625  53.2169 338.1413 0001334  95.4697 264.6447 15.08836093 51666
0 STARLINK-3990
1 52626U 22052AE  23105.89014063  .00004371  00000-0  29255-3 0  9995
2 52626  53.2166 342.2515 0001199 104.1425 255.9701 15.08839897 51143
0 STARLINK-3990
1 52626U 22052AE  23106.02262162  .00012728  00000-0  81624-3 0  9999
2 52626  53.2167 341.6567 0001186  99.0386 261.0741 15.08844924 51169
0 STARLINK-3990
1 52626U 22052AE  23106.02262162  .00012728  00000-0  81624-3 0  9999
2 52626  53.2167 341.6567 0001186  99.0386 261.0741 15.08844924 51541
0 STARLINK-3990
1 52626U 22052AE  23106.81750605  .00007982  00000-0  51906-3 0  9996
2 52626  53.2169 338.0907 0001286  96.2001 263.9138 15.08836087 51660
0 STARLINK-3992
1 52627U 22052AF  23105.86806506  .00001358  00000-0  10339-3 0  9999
2 52627  53.2171 342.3524 0001224 107.8945 252.2180 15.08839254 51156
0 STARLINK-3992
1 52627U 22052AF  23106.06678478  .00001882  00000-0  13631-3 0  9997
2 52627  53.2173 341.4602 0001218 106.3714 253.7412 15.08841046 51185
0 STARLINK-4001
1 52628U 22052AG  23105.91635960 -.00002395  00000-0 -13242-3 0  9990
2 52628  53.2170 357.1371 0001173  98.4982 261.6143 15.08839480 50949
0 STARLINK-4001
1 52628U 22052AG  23106.11507834  .00000936  00000-0  76856-4 0  9999
2 52628  53.2180 356.2440 0001201  86.1335 273.9795 15.08843503 51351
0 STARLINK-4001
1 52628U 22052AG  23106.11507834  .00000936  00000-0  76856-4 0  9999
2 52628  53.2180 356.2440 0001201  86.1335 273.9795 15.08843503 50978
0 STARLINK-4022
1 52629U 22052AH  23105.86533826  .00000990  00000-0  80270-4 0  9996
2 52629  53.2177 342.3768 0001124  93.2822 266.8299 15.08838350 51142
0 STARLINK-4022
1 52629U 22052AH  23106.06405942  .00006900  00000-0  45116-3 0  9992
2 52629  53.2181 341.4834 0001216  97.0992 263.0138 15.08841319 51176
0 STARLINK-3989
1 52630U 22052AJ  23105.94165932 -.00000713  00000-0 -26734-4 0  9996
2 52630  53.2166 342.0252 0000645  89.3899 270.7167 15.08844758 51152
0 STARLINK-3989
1 52630U 22052AJ  23106.07413571  .00001791  00000-0  13055-3 0  9992
2 52630  53.2170 341.4285 0001013  97.9202 262.1906 15.08852628 51172
0 STARLINK-3794
1 52631U 22052AK  23105.92694135  .00005583  00000-0  36859-3 0  9993
2 52631  53.2177 342.0911 0001179  78.8829 281.2296 15.08839407 51162
0 STARLINK-3794
1 52631U 22052AK  23106.05942128  .00007872  00000-0  51207-3 0  9993
2 52631  53.2175 341.4952 0001225  79.9202 280.1928 15.08844704 51185
0 STARLINK-3995
1 52632U 22052AL  23105.93797888  .00007422  00000-0  48386-3 0  9996
2 52632  53.2168 342.0408 0001107  95.1099 265.0019 15.08843944 51160
0 STARLINK-3995
1 52632U 22052AL  23106.07046015  .00014219  00000-0  90947-3 0  9993
2 52632  53.2169 341.4444 0001132  95.6236 264.4885 15.08846880 51188
0 STARLINK-3994
1 52633U 22052AM  23105.91589831 -.00000025  00000-0  16494-4 0  9991
2 52633  53.2163 342.1386 0000667 113.4729 246.6333 15.08839780 51163
0 STARLINK-3994
1 52633U 22052AM  23106.04837690  .00002652  00000-0  18461-3 0  9997
2 52633  53.2170 341.5436 0000798 108.3553 251.7526 15.08846257 51183
0 STARLINK-3994
1 52633U 22052AM  23106.04837690  .00002652  00000-0  18461-3 0  9997
2 52633  53.2170 341.5436 0000798 108.3553 251.7526 15.08846257 51554
0 STARLINK-3974
1 52634U 22052AN  23105.93062671  .00001623  00000-0  12004-3 0  9998
2 52634  53.2176 342.1028 0001084  95.6572 264.4544 15.08841733 51154
0 STARLINK-3974
1 52634U 22052AN  23106.06310517  .00003127  00000-0  21441-3 0  9994
2 52634  53.2178 341.5077 0001241  97.3661 262.7473 15.08846512 51170
0 STARLINK-3974
1 52634U 22052AN  23106.06310517  .00003127  00000-0  21441-3 0  9994
2 52634  53.2178 341.5077 0001241  97.3661 262.7473 15.08846512 51552
0 STARLINK-3978
1 52635U 22052AP  23105.89842266  .00007433  00000-0  48458-3 0  9997
2 52635  53.2164 332.2213 0000910  76.8113 283.2981 15.08842652 51297
0 STARLINK-3978
1 52635U 22052AP  23106.03090269  .00008937  00000-0  57883-3 0  9994
2 52635  53.2163 331.6265 0000902  74.1591 285.9501 15.08844796 51319
0 STARLINK-3967
1 52636U 22052AQ  23105.92326113  .00008782  00000-0  56904-3 0  9993
2 52636  53.2172 342.1071 0000747  96.4767 263.6311 15.08846918 51153
0 STARLINK-3967
1 52636U 22052AQ  23106.05573962  .00012227  00000-0  78469-3 0  9993
2 52636  53.2167 341.5123 0000840  95.0566 265.0522 15.08854214 51174
0 STARLINK-3967
1 52636U 22052AQ  23106.78438407  .00001868  00000-0  13541-3 0  9996
2 52636  53.2172 338.2420 0000993 104.7958 255.3145 15.08839881 51665
0 STARLINK-3961
1 52637U 22052AR  23105.96097052  .00022604  00000-0  14324-2 0  9993
2 52637  53.2168 331.9384 0000520 108.7886 251.3163 15.08874672 52103
0 STARLINK-3961
1 52637U 22052AR  23106.82210246  .00011608  00000-0  74647-3 0  9998
2 52637  53.2167 328.0718 0000850  25.7488 334.3547 15.08828503 51808
0 STARLINK-3941
1 52638U 22052AS  23105.91958945  .00010958  00000-0  70523-3 0  9999
2 52638  53.2160 342.1235 0001233  95.5355 264.5778 15.08855759 51967
0 STARLINK-3941
1 52638U 22052AS  23106.05206691  .00016774  00000-0  10687-2 0  9995
2 52638  53.2157 341.5286 0001346  89.8127 270.3019 15.08867919 51986
0 STARLINK-3941
1 52638U 22052AS  23106.05206691  .00016774  00000-0  10687-2 0  9995
2 52638  53.2157 341.5286 0001346  89.8127 270.3019 15.08867919 51559
0 STARLINK-3941
1 52638U 22052AS  23106.78070707  .00003766  00000-0  25454-3 0  9998
2 52638  53.2169 338.2569 0001335  92.7096 267.4049 15.08849318 51660
0 STARLINK-3968
1 52639U 22052AT  23105.88370370  .00000429  00000-0  45055-4 0  9991
2 52639  53.2171 332.2816 0001046  86.8564 273.2548 15.08834699 52099
0 STARLINK-3968
1 52639U 22052AT  23106.01618517  .00006277  00000-0  41218-3 0  9998
2 52639  53.2170 331.6869 0001006  82.7385 277.3721 15.08836221 52115
0 STARLINK-3977
1 52640U 22052AU  23105.90210729  .00000147  00000-0  27293-4 0  9998
2 52640  53.2170 332.2346 0001214  69.3204 290.7918 15.08842676 51281
0 STARLINK-3977
1 52640U 22052AU  23106.03458603  .00001170  00000-0  91554-4 0  9996
2 52640  53.2167 331.6389 0001188  69.2903 290.8216 15.08845440 51309
0 STARLINK-3991
1 52641U 22052AV  23105.88002127  .00001199  00000-0  93391-4 0  9997
2 52641  53.2155 332.3032 0000780  95.3171 264.7910 15.08838060 51293
0 STARLINK-3991
1 52641U 22052AV  23105.88002127  .00001199  00000-0  93391-4 0  9997
2 52641  53.2155 332.3032 0000780  95.3171 264.7910 15.08838060 51664
0 STARLINK-3991
1 52641U 22052AV  23105.94626042  .00000643  00000-0  58471-4 0  9995
2 52641  53.2160 332.0061 0000740  96.4519 263.6558 15.08841891 51306
0 STARLINK-3971
1 52642U 22052AW  23105.89106268  .00003698  00000-0  25032-3 0  9992
2 52642  53.2168 332.2545 0001159  95.7465 264.3659 15.08841965 51280
0 STARLINK-3971
1 52642U 22052AW  23105.95730274  .00004550  00000-0  30374-3 0  9992
2 52642  53.2164 331.9577 0001068  94.6231 265.4883 15.08844444 51292
0 STARLINK-3963
1 52643U 22052AX  23105.86625670  .00000086  00000-0  23496-4 0  9994
2 52643  53.2176 332.3339 0001318  84.5649 275.5494 15.08836096 51289
0 STARLINK-3963
1 52643U 22052AX  23106.06497425  .00004374  00000-0  29268-3 0  9998
2 52643  53.2171 331.4390 0001202  89.8170 270.2960 15.08844680 51312
0 STARLINK-3963
1 52643U 22052AX  23106.06497425  .00004374  00000-0  29268-3 0  9998
2 52643  53.2171 331.4390 0001202  89.8170 270.2960 15.08844680 51693
0 STARLINK-3985
1 52644U 22052AY  23105.88738519  .00001484  00000-0  11130-3 0  9998
2 52644  53.2175 332.2645 0001346  89.4796 270.6351 15.08838199 51280
0 STARLINK-3985
1 52644U 22052AY  23106.01986606  .00004467  00000-0  29857-3 0  9995
2 52644  53.2173 331.6694 0001350  90.7559 269.3588 15.08838063 51302
0 STARLINK-3973
1 52645U 22052AZ  23105.87635641  .00000205  00000-0  30958-4 0  9990
2 52645  53.2166 332.4204 0001136 103.9556 256.1563 15.08835917 51286
0 STARLINK-3973
1 52645U 22052AZ  23106.07507620  .00004238  00000-0  28415-3 0  9992
2 52645  53.2163 331.5282 0000935  83.7396 276.3702 15.08843026 51315
0 STARLINK-3832
1 52646U 22052BA  23105.87729958 -.00000645  00000-0 -22456-4 0  9990
2 52646  53.2166 332.3201 0001189 101.9400 258.1726 15.08840020 51292
0 STARLINK-3832
1 52646U 22052BA  23106.00977750  .00000096  00000-0  24093-4 0  9998
2 52646  53.2159 331.7247 0001012 103.2652 256.8453 15.08844022 51317
0 STARLINK-3846
1 52647U 22052BB  23105.86899336  .00002973  00000-0  20478-3 0  9993
2 52647  53.2162 332.4538 0001135  97.8350 262.2771 15.08843652 51291
0 STARLINK-3846
1 52647U 22052BB  23106.06771262  .00009274  00000-0  59982-3 0  9996
2 52647  53.2164 331.5615 0001091  96.0914 264.0202 15.08851670 51329
0 STARLINK-3854
1 52648U 22052BC  23105.87266181 -.00000040  00000-0  15564-4 0  9996
2 52648  53.2162 332.3315 0000994  84.9004 275.2101 15.08837896 51282
0 STARLINK-3854
1 52648U 22052BC  23106.60130532  .00001304  00000-0  10001-3 0  9991
2 52648  53.2162 329.0608 0001174  78.1681 281.9443 15.08836875 51398
0 STARLINK-3868
1 52649U 22052BD  23105.91312429  .00004849  00000-0  32252-3 0  9991
2 52649  53.2185 332.0100 0000885  97.4128 262.6965 15.08841600 51301
0 STARLINK-3868
1 52649U 22052BD  23106.04560365  .00011767  00000-0  75597-3 0  9996
2 52649  53.2171 331.4126 0000830  87.7658 272.3429 15.08849012 51327
0 STARLINK-3891
1 52650U 22052BE  23105.87085715  .00001614  00000-0  11946-3 0  9997
2 52650  53.2169 322.3407 0001071  82.8983 277.2130 15.08842518 51431
